NORAD_CAT_ID,OBJECT_NAME,OBJECT_TYPE,EPOCH,MEAN_MOTION,ECCENTRICITY,INCLINATION,RA_OF_ASC_NODE,ARG_OF_PERICENTER,MEAN_ANOMALY,BSTAR,MEAN_MOTION_DOT,MEAN_MOTION_DDOT,TLE_LINE0,TLE_LINE1,TLE_LINE2,SEMIMAJOR_AXIS,PERIOD,APOGEE,PERIGEE,DECAYED
49738.0,STARLINK-3143,PAYLOAD,2023-11-25 07:48:22,15.08851088,0.0001822,53.2174,299.2124,115.1045,245.0136,0.00045884,7.024e-05,0.0,0 STARLINK-3143,1 49738U 21115Q   23329.32526437  .00007024  00000-0  45884-3 0  9997,2 49738  53.2174 299.2124 0001822 115.1045 245.0136 15.08851088109425,6917.846,95.437,540.972,538.451,0.0
49738.0,STARLINK-3143,PAYLOAD,2023-11-26 07:39:09,15.08870134,0.0001938,53.2185,294.7496,89.4248,270.6966,0.00071903,0.00011183,0.0,0 STARLINK-3143,1 49738U 21115Q   23330.31885836  .00011183  00000-0  71903-3 0  9991,2 49738  53.2185 294.7496 0001938  89.4248 270.6966 15.08870134109579,6917.788,95.436,540.994,538.313,0.0
49738.0,STARLINK-3143,PAYLOAD,2023-11-26 21:57:38,15.08824933,0.0001381,53.2182,292.0784,105.0068,255.1077,-0.00032233,-5.412e-05,0.0,0 STARLINK-3143,1 49738U 21115Q   23330.91502454 -.00005412  00000-0 -32233-3 0  9992,2 49738  53.2182 292.0784 0001381 105.0068 255.1077 15.08824933109661,6917.926,95.439,540.747,538.836,0.0
49738.0,STARLINK-3143,PAYLOAD,2023-11-27 02:43:47,15.08829797,0.0001759,53.2186,291.1801,114.5559,245.5616,-0.00028694,-4.851e-05,0.0,0 STARLINK-3143,1 49738U 21115Q   23331.11374668 -.00004851  00000-0 -28694-3 0  9991,2 49738  53.2186 291.1801 0001759 114.5559 245.5616 15.08829797110807,6917.912,95.438,540.993,538.56,0.0
49738.0,STARLINK-3143,PAYLOAD,2023-11-27 07:29:57,15.08830101,0.0001786,53.2181,290.2908,118.9536,241.1636,-0.00017888,-3.133e-05,0.0,0 STARLINK-3143,1 49738U 21115Q   23331.31246808 -.00003133  00000-0 -17888-3 0  9992,2 49738  53.2181 290.2908 0001786 118.9536 241.1636 15.08830101109727,6917.911,95.438,541.011,538.54,0.0
49738.0,STARLINK-3143,PAYLOAD,2023-11-28 02:34:34,15.08840712,0.0001659,53.2183,286.7258,96.0883,264.0298,0.00023006,3.375e-05,0.0,0 STARLINK-3143,1 49738U 21115Q   23332.10734871  .00003375  00000-0  23006-3 0  9997,2 49738  53.2183 286.7258 0001659  96.0883 264.0298 15.08840712110951,6917.878,95.438,540.891,538.596,0.0
49738.0,STARLINK-3143,PAYLOAD,2023-11-28 04:09:57,15.08845283,0.0002027,53.2184,286.4262,109.022,251.0992,0.00034528,5.212e-05,0.0,0 STARLINK-3143,1 49738U 21115Q   23332.17358684  .00005212  00000-0  34528-3 0  9991,2 49738  53.2184 286.4262 0002027 109.0220 251.0992 15.08845283109856,6917.864,95.437,541.131,538.327,0.0
49738.0,STARLINK-3143,PAYLOAD,2023-11-28 20:03:49,15.08838783,0.0001822,53.2187,283.4518,118.7301,241.3874,0.00023458,3.447e-05,0.0,0 STARLINK-3143,1 49738U 21115Q   23332.83599334  .00003447  00000-0  23458-3 0  9991,2 49738  53.2187 283.4518 0001822 118.7301 241.3874 15.08838783111063,6917.884,95.438,541.01,538.489,0.0
49738.0,STARLINK-3143,PAYLOAD,2023-11-29 05:36:08,15.08852055,0.0001695,53.2187,281.6689,96.3615,263.757,0.00051403,7.905e-05,0.0,0 STARLINK-3143,1 49738U 21115Q   23333.23343073  .00007905  00000-0  51403-3 0  9997,2 49738  53.2187 281.6689 0001695  96.3615 263.7570 15.08852055111125,6917.844,95.437,540.881,538.536,0.0
49738.0,STARLINK-3143,PAYLOAD,2023-11-30 03:51:32,15.0884684,0.0001817,53.2187,277.5097,78.2774,281.8422,0.00054589,8.412e-05,0.0,0 STARLINK-3143,1 49738U 21115Q   23334.16079420  .00008412  00000-0  54589-3 0  9994,2 49738  53.2187 277.5097 0001817  78.2774 281.8422 15.08846840111260,6917.859,95.437,540.981,538.468,0.0
49738.0,STARLINK-3143,PAYLOAD,2023-12-01 03:42:20,15.08844077,0.0001564,53.2177,273.0473,85.8027,274.3144,0.00028931,4.32e-05,0.0,0 STARLINK-3143,1 49738U 21115Q   23335.15439862  .00004320  00000-0  28931-3 0  9990,2 49738  53.2177 273.0473 0001564  85.8027 274.3144 15.08844077111417,6917.868,95.437,540.815,538.651,0.0
49738.0,STARLINK-3143,PAYLOAD,2023-12-01 05:17:42,15.0884907,0.0001561,53.2175,272.7499,87.9668,272.1503,0.0003833,5.819e-05,0.0,0 STARLINK-3143,1 49738U 21115Q   23335.22063547  .00005819  00000-0  38330-3 0  9999,2 49738  53.2175 272.7499 0001561  87.9668 272.1503 15.08849070110311,6917.853,95.437,540.798,538.638,0.0
49738.0,STARLINK-3143,PAYLOAD,2023-12-02 01:57:42,15.08892484,0.0001526,53.2176,268.886,89.2153,270.9014,0.001855,0.000294,0.0,0 STARLINK-3143,1 49738U 21115Q   23336.08174634  .00029400  00000-0  18550-2 0  9997,2 49738  53.2176 268.8860 0001526  89.2153 270.9014 15.08892484111552,6917.72,95.434,540.641,538.529,0.0
49738.0,STARLINK-3143,PAYLOAD,2023-12-03 01:48:29,15.0884372,0.0001668,53.2169,264.421,136.6099,223.5025,3.0899e-05,2.04e-06,0.0,0 STARLINK-3143,1 49738U 21115Q   23337.07534547  .00000204  00000-0  30899-4 0  9993,2 49738  53.2169 264.4210 0001668 136.6099 223.5025 15.08843720111700,6917.869,95.437,540.888,538.58,0.0
49738.0,STARLINK-3143,PAYLOAD,2023-12-03 19:17:45,15.08818224,0.0001568,53.2171,261.1592,96.2776,263.8394,0.0002412,3.551e-05,0.0,0 STARLINK-3143,1 49738U 21115Q   23337.80400309  .00003551  00000-0  24120-3 0  9999,2 49738  53.2171 261.1592 0001568  96.2776 263.8394 15.08818224111811,6917.947,95.439,540.897,538.727,0.0
49738.0,STARLINK-3143,PAYLOAD,2023-12-04 01:39:18,15.08837433,0.0001694,53.2187,259.9692,111.8856,248.2316,-0.00038339,-6.384e-05,0.0,0 STARLINK-3143,1 49738U 21115Q   23338.06895945 -.00006384  00000-0 -38339-3 0  9998,2 49738  53.2187 259.9692 0001694 111.8856 248.2316 15.08837433111855,6917.888,95.438,540.925,538.581,0.0
49738.0,STARLINK-3143,PAYLOAD,2023-12-04 04:50:04,15.08841889,0.0001566,53.2173,259.3695,108.0334,252.0828,-0.00036783,-6.138e-05,0.0,0 STARLINK-3143,1 49738U 21115Q   23338.20143721 -.00006138  00000-0 -36783-3 0  9990,2 49738  53.2173 259.3695 0001566 108.0334 252.0828 15.08841889110764,6917.875,95.437,540.823,538.656,0.0
49738.0,STARLINK-3143,PAYLOAD,2023-12-05 01:30:04,15.08840944,0.0001519,53.2188,255.5069,118.2436,241.871,0.00017377,2.479e-05,0.0,0 STARLINK-3143,1 49738U 21115Q   23339.06255366  .00002479  00000-0  17377-3 0  9994,2 49738  53.2188 255.5069 0001519 118.2436 241.8710 15.08840944112003,6917.878,95.437,540.793,538.692,0.0
49738.0,STARLINK-3143,PAYLOAD,2023-12-05 04:40:50,15.08847978,0.0001442,53.2179,254.9087,113.8046,246.3097,0.00023956,3.528e-05,0.0,0 STARLINK-3143,1 49738U 21115Q   23339.19502919  .00003528  00000-0  23956-3 0  9993,2 49738  53.2179 254.9087 0001442 113.8046 246.3097 15.08847978110919,6917.856,95.437,540.719,538.723,0.0
49738.0,STARLINK-3143,PAYLOAD,2023-12-05 18:59:20,15.08834076,0.0001225,53.2182,252.234,98.4759,261.6372,0.00014426,2.008e-05,0.0,0 STARLINK-3143,1 49738U 21115Q   23339.79120454  .00002008  00000-0  14426-3 0  9993,2 49738  53.2182 252.2340 0001225  98.4759 261.6372 15.08834076112119,6917.898,95.438,540.611,538.916,0.0
49738.0,STARLINK-3143,PAYLOAD,2023-12-05 23:45:29,15.08837243,0.0001571,53.2179,251.3394,113.2253,246.8904,0.00015111,2.118e-05,0.0,0 STARLINK-3143,1 49738U 21115Q   23339.98992233  .00002118  00000-0  15111-3 0  9990,2 49738  53.2179 251.3394 0001571 113.2253 246.8904 15.08837243111038,6917.889,95.438,540.841,538.667,0.0
49738.0,STARLINK-3143,PAYLOAD,2023-12-07 04:22:25,15.08842265,0.0001461,53.2172,245.9892,113.2961,246.8185,-7.2209e-05,-1.437e-05,0.0,0 STARLINK-3143,1 49738U 21115Q   23341.18224381 -.00001437  00000-0 -72209-4 0  9994,2 49738  53.2172 245.9892 0001461 113.2961 246.8185 15.08842265112321,6917.873,95.437,540.749,538.728,0.0
49738.0,STARLINK-3143,PAYLOAD,2023-12-08 02:37:49,15.08839222,0.0001414,53.2168,241.8264,92.0328,268.0827,7.3636e-05,8.84e-06,0.0,0 STARLINK-3143,1 49738U 21115Q   23342.10960284  .00000884  00000-0  73636-4 0  9994,2 49738  53.2168 241.8264 0001414  92.0328 268.0827 15.08839222111353,6917.883,95.438,540.726,538.77,0.0
49738.0,STARLINK-3143,PAYLOAD,2023-12-09 02:28:36,15.08842952,0.0001366,53.2168,237.3665,91.0171,269.0978,8.9875e-05,1.143e-05,0.0,0 STARLINK-3143,1 49738U 21115Q   23343.10319985  .00001143  00000-0  89875-4 0  9992,2 49738  53.2168 237.3665 0001366  91.0171 269.0978 15.08842952112611,6917.871,95.437,540.681,538.791,0.0
49738.0,STARLINK-3143,PAYLOAD,2023-12-10 19:48:38,15.0883985,0.0001383,53.2167,229.6347,94.2299,265.8852,6.2377e-06,-1.89e-06,0.0,0 STARLINK-3143,1 49738U 21115Q   23344.82544127 -.00000189  00000-0  62377-5 0  9999,2 49738  53.2167 229.6347 0001383  94.2299 265.8852 15.08839850112872,6917.881,95.438,540.703,538.789,0.0
49738.0,STARLINK-3143,PAYLOAD,2023-12-10 22:59:24,15.08839937,0.0001509,53.2178,229.0342,105.3422,254.7737,1.8466e-05,6e-08,0.0,0 STARLINK-3143,1 49738U 21115Q   23344.95792068  .00000006  00000-0  18466-4 0  9998,2 49738  53.2178 229.0342 0001509 105.3422 254.7737 15.08839937111789,6917.881,95.438,540.789,538.702,0.0
49738.0,STARLINK-3143,PAYLOAD,2023-12-11 21:14:47,15.08845885,0.0002042,53.215,224.8766,40.779,319.3355,0.00017601,2.515e-05,0.0,0 STARLINK-3143,1 49738U 21115Q   23345.88527409  .00002515  00000-0  17601-3 0  9992,2 49738  53.2150 224.8766 0002042  40.7790 319.3355 15.08845885111924,6917.862,95.437,541.14,538.315,0.0
49738.0,STARLINK-3143,PAYLOAD,2023-12-12 19:30:12,15.08839048,0.000141,53.2169,220.7106,94.8438,265.2715,3.8823e-05,3.3e-06,0.0,0 STARLINK-3143,1 49738U 21115Q   23346.81264224  .00000330  00000-0  38823-4 0  9992,2 49738  53.2169 220.7106 0001410  94.8438 265.2715 15.08839048113176,6917.883,95.438,540.724,538.773,0.0
49738.0,STARLINK-3143,PAYLOAD,2023-12-12 21:05:35,15.08840081,0.0001415,53.2167,220.4146,90.6688,269.4466,4.8007e-05,4.76e-06,0.0,0 STARLINK-3143,1 49738U 21115Q   23346.87888188  .00000476  00000-0  48007-4 0  9995,2 49738  53.2167 220.4146 0001415  90.6688 269.4466 15.08840081112077,6917.88,95.438,540.724,538.766,0.0
49738.0,STARLINK-3143,PAYLOAD,2023-12-13 20:56:22,15.08840871,0.0001514,53.2165,215.9537,98.6225,261.4939,5.6995e-05,6.19e-06,0.0,0 STARLINK-3143,1 49738U 21115Q   23347.87248027  .00000619  00000-0  56995-4 0  9992,2 49738  53.2165 215.9537 0001514  98.6225 261.4939 15.08840871112224,6917.878,95.437,540.79,538.695,0.0
